{
  "type": "FeatureCollection",
  "features": [
    {
      "type": "Feature",
      "properties": {
        "norad_id": 46993,
        "name": "FENGYUN 1C DEB",
        "group": "fengyun-1c-debris",
        "lat": 0.32589822360839976,
        "lon": -76.06985506227288,
        "alt_km": 1109.40511017459,
        "timestamp": "2025-12-11T07:02:24.020682+00:00",
        "meta_object_name": "FENGYUN 1C DEB",
        "meta_object_id": "1999-025EZT",
        "meta_epoch": "2025-12-09T13:52:54.599808",
        "meta_mean_motion": 13.69143946,
        "meta_eccentricity": 0.0262449,
        "meta_inclination": 98.7232,
        "meta_ra_of_asc_node": 102.3256,
        "meta_arg_of_pericenter": 307.8097,
        "meta_mean_anomaly": 66.0897,
        "meta_ephemeris_type": 0,
        "meta_classification_type": "U",
        "meta_norad_cat_id": 46993,
        "meta_element_set_no": 999,
        "meta_rev_at_epoch": 60214,
        "meta_bstar": 0.00067098,
        "meta_mean_motion_dot": 6.99e-06,
        "meta_mean_motion_ddot": 0,
        "tle_line1": "1 46993U 99025EZT 25343.57840972  .00000699  00000+0  67098-3 0  9991",
        "tle_line2": "2 46993  98.7232 102.3256 0262449 307.8097  66.0897 13.69143946602149"
      },
      "geometry": {
        "type": "Point",
        "coordinates": [
          -76.06985506227288,
          0.32589822360839976
        ]
      }
    },
    {
      "type": "Feature",
      "properties": {
        "norad_id": 46995,
        "name": "FENGYUN 1C DEB",
        "group": "fengyun-1c-debris",
        "lat": 78.67303915046837,
        "lon": 18.39295273701848,
        "alt_km": 825.2108727190353,
        "timestamp": "2025-12-11T07:02:24.020692+00:00",
        "meta_object_name": "FENGYUN 1C DEB",
        "meta_object_id": "1999-025EZV",
        "meta_epoch": "2025-12-08T04:09:42.058944",
        "meta_mean_motion": 13.86298509,
        "meta_eccentricity": 0.01910077,
        "meta_inclination": 98.5941,
        "meta_ra_of_asc_node": 64.5473,
        "meta_arg_of_pericenter": 130.6271,
        "meta_mean_anomaly": 231.1675,
        "meta_ephemeris_type": 0,
        "meta_classification_type": "U",
        "meta_norad_cat_id": 46995,
        "meta_element_set_no": 999,
        "meta_rev_at_epoch": 60405,
        "meta_bstar": 0.0036530697,
        "meta_mean_motion_dot": 4.839e-05,
        "meta_mean_motion_ddot": 0,
        "tle_line1": "1 46995U 99025EZV 25342.17340346  .00004839  00000+0  36531-2 0  9995",
        "tle_line2": "2 46995  98.5941  64.5473 0191007 130.6271 231.1675 13.86298509604059"
      },
      "geometry": {
        "type": "Point",
        "coordinates": [
          18.39295273701848,
          78.67303915046837
        ]
      }
    },
    {
      "type": "Feature",
      "properties": {
        "norad_id": 46997,
        "name": "FENGYUN 1C DEB",
        "group": "fengyun-1c-debris",
        "lat": -9.653764520732349,
        "lon": -155.80502944273144,
        "alt_km": 818.2375061483062,
        "timestamp": "2025-12-11T07:02:24.020703+00:00",
        "meta_object_name": "FENGYUN 1C DEB",
        "meta_object_id": "1999-025EZX",
        "meta_epoch": "2025-12-07T08:16:23.280096",
        "meta_mean_motion": 14.27956499,
        "meta_eccentricity": 0.0024911,
        "meta_inclination": 98.5588,
        "meta_ra_of_asc_node": 21.7939,
        "meta_arg_of_pericenter": 352.6348,
        "meta_mean_anomaly": 70.0216,
        "meta_ephemeris_type": 0,
        "meta_classification_type": "U",
        "meta_norad_cat_id": 46997,
        "meta_element_set_no": 999,
        "meta_rev_at_epoch": 62374,
        "meta_bstar": 0.0018200701,
        "meta_mean_motion_dot": 4.485e-05,
        "meta_mean_motion_ddot": 0,
        "tle_line1": "1 46997U 99025EZX 25341.34471389  .00004485  00000+0  18201-2 0  9998",
        "tle_line2": "2 46997  98.5588  21.7939 0024911 352.6348  70.0216 14.27956499623743"
      },
      "geometry": {
        "type": "Point",
        "coordinates": [
          -155.80502944273144,
          -9.653764520732349
        ]
      }
    },
    {
      "type": "Feature",
      "properties": {
        "norad_id": 47001,
        "name": "FENGYUN 1C DEB",
        "group": "fengyun-1c-debris",
        "lat": 20.379396875858575,
        "lon": -133.29897987824458,
        "alt_km": 773.2369781299203,
        "timestamp": "2025-12-11T07:02:24.020713+00:00",
        "meta_object_name": "FENGYUN 1C DEB",
        "meta_object_id": "1999-025FAB",
        "meta_epoch": "2025-12-10T10:16:26.748768",
        "meta_mean_motion": 14.38430666,
        "meta_eccentricity": 0.00518411,
        "meta_inclination": 99.3053,
        "meta_ra_of_asc_node": 42.2721,
        "meta_arg_of_pericenter": 56.3628,
        "meta_mean_anomaly": 304.2487,
        "meta_ephemeris_type": 0,
        "meta_classification_type": "U",
        "meta_norad_cat_id": 47001,
        "meta_element_set_no": 999,
        "meta_rev_at_epoch": 73881,
        "meta_bstar": 0.0022386151,
        "meta_mean_motion_dot": 6.894e-05,
        "meta_mean_motion_ddot": 0,
        "tle_line1": "1 47001U 99025FAB 25344.42808737  .00006894  00000+0  22386-2 0  9993",
        "tle_line2": "2 47001  99.3053  42.2721 0051841  56.3628 304.2487 14.38430666738816"
      },
      "geometry": {
        "type": "Point",
        "coordinates": [
          -133.29897987824458,
          20.379396875858575
        ]
      }
    },
    {
      "type": "Feature",
      "properties": {
        "norad_id": 47005,
        "name": "FENGYUN 1C DEB",
        "group": "fengyun-1c-debris",
        "lat": 18.078102234743742,
        "lon": 70.95276294783682,
        "alt_km": 887.1268994927741,
        "timestamp": "2025-12-11T07:02:24.020723+00:00",
        "meta_object_name": "FENGYUN 1C DEB",
        "meta_object_id": "1999-025FAF",
        "meta_epoch": "2025-12-03T11:49:12.815616",
        "meta_mean_motion": 14.10913141,
        "meta_eccentricity": 0.00635736,
        "meta_inclination": 99.6019,
        "meta_ra_of_asc_node": 65.7889,
        "meta_arg_of_pericenter": 267.3996,
        "meta_mean_anomaly": 108.1197,
        "meta_ephemeris_type": 0,
        "meta_classification_type": "U",
        "meta_norad_cat_id": 47005,
        "meta_element_set_no": 999,
        "meta_rev_at_epoch": 82637,
        "meta_bstar": 0.0032335345,
        "meta_mean_motion_dot": 5.865e-05,
        "meta_mean_motion_ddot": 0,
        "tle_line1": "1 47005U 99025FAF 25337.49250944  .00005865  00000+0  32335-2 0  9999",
        "tle_line2": "2 47005  99.6019  65.7889 0063573 267.3996 108.1197 14.10913141826379"
      },
      "geometry": {
        "type": "Point",
        "coordinates": [
          70.95276294783682,
          18.078102234743742
        ]
      }
    },
    {
      "type": "Feature",
      "properties": {
        "norad_id": 47007,
        "name": "FENGYUN 1C DEB",
        "group": "fengyun-1c-debris",
        "lat": -41.77560682559963,
        "lon": 20.018735236903648,
        "alt_km": 1075.3712400821769,
        "timestamp": "2025-12-11T07:02:24.020733+00:00",
        "meta_object_name": "FENGYUN 1C DEB",
        "meta_object_id": "1999-025FAH",
        "meta_epoch": "2025-12-08T21:16:39.177984",
        "meta_mean_motion": 13.97173358,
        "meta_eccentricity": 0.0236041,
        "meta_inclination": 98.2064,
        "meta_ra_of_asc_node": 205.2735,
        "meta_arg_of_pericenter": 64.5325,
        "meta_mean_anomaly": 298.0058,
        "meta_ephemeris_type": 0,
        "meta_classification_type": "U",
        "meta_norad_cat_id": 47007,
        "meta_element_set_no": 999,
        "meta_rev_at_epoch": 78795,
        "meta_bstar": 0.002596,
        "meta_mean_motion_dot": 4.564e-05,
        "meta_mean_motion_ddot": 0,
        "tle_line1": "1 47007U 99025FAH 25342.88656456  .00004564  00000+0  25960-2 0  9999",
        "tle_line2": "2 47007  98.2064 205.2735 0236041  64.5325 298.0058 13.97173358787959"
      },
      "geometry": {
        "type": "Point",
        "coordinates": [
          20.018735236903648,
          -41.77560682559963
        ]
      }
    },
    {
      "type": "Feature",
      "properties": {
        "norad_id": 47009,
        "name": "FENGYUN 1C DEB",
        "group": "fengyun-1c-debris",
        "lat": 61.20247750623873,
        "lon": 165.91875526843887,
        "alt_km": 1328.2546952036728,
        "timestamp": "2025-12-11T07:02:24.020763+00:00",
        "meta_object_name": "FENGYUN 1C DEB",
        "meta_object_id": "1999-025FAK",
        "meta_epoch": "2025-12-02T05:09:31.123584",
        "meta_mean_motion": 13.37303446,
        "meta_eccentricity": 0.0352227,
        "meta_inclination": 98.9376,
        "meta_ra_of_asc_node": 321.2954,
        "meta_arg_of_pericenter": 285.6992,
        "meta_mean_anomaly": 70.555,
        "meta_ephemeris_type": 0,
        "meta_classification_type": "U",
        "meta_norad_cat_id": 47009,
        "meta_element_set_no": 999,
        "meta_rev_at_epoch": 58668,
        "meta_bstar": 0.00057132,
        "meta_mean_motion_dot": 3.87e-06,
        "meta_mean_motion_ddot": 0,
        "tle_line1": "1 47009U 99025FAK 25336.21494356  .00000387  00000+0  57132-3 0  9996",
        "tle_line2": "2 47009  98.9376 321.2954 0352227 285.6992  70.5550 13.37303446586681"
      },
      "geometry": {
        "type": "Point",
        "coordinates": [
          165.91875526843887,
          61.20247750623873
        ]
      }
    }
  ]
}